{
  "norad_id": 43231,
  "name": "O3B FM15",
  "history": [
    {
      "epoch": "2026-03-28T17:41:00.840192Z",
      "apogee_km": 8069.726282176455,
      "perigee_km": 8062.047261378427,
      "latitude_deg": -0.002404853189663548,
      "longitude_deg": -91.40642930464189,
      "height_km": 8060.535017226748,
      "semi_major_axis_km": 14444.02377177744,
      "eccentricity": 0.00026582,
      "inclination_deg": 0.05,
      "raan_deg": 2.8393,
      "arg_perigee_deg": 1.1715,
      "mean_anomaly_deg": 355.9867,
      "mean_motion_rev_day": 5.00115679
    },
    {
      "epoch": "2026-03-28T22:28:51.407040Z",
      "apogee_km": 8069.726339964495,
      "perigee_km": 8062.047896743178,
      "latitude_deg": -0.002368691730246635,
      "longitude_deg": -163.56416608691052,
      "height_km": 8060.5365889258455,
      "semi_major_axis_km": 14444.024118353836,
      "eccentricity": 0.0002658,
      "inclination_deg": 0.05,
      "raan_deg": 2.8478,
      "arg_perigee_deg": 1.3696,
      "mean_anomaly_deg": 355.7802,
      "mean_motion_rev_day": 5.00115661
    },
    {
      "epoch": "2026-04-02T03:13:32.936736Z",
      "apogee_km": 8069.688881752339,
      "perigee_km": 8062.082659361363,
      "latitude_deg": -0.0006174595292981993,
      "longitude_deg": 121.12534666226092,
      "height_km": 8060.610228410752,
      "semi_major_axis_km": 14444.02277055685,
      "eccentricity": 0.0002633,
      "inclination_deg": 0.0502,
      "raan_deg": 3.1354,
      "arg_perigee_deg": 6.1622,
      "mean_anomaly_deg": 350.7046,
      "mean_motion_rev_day": 5.00115731
    },
    {
      "epoch": "2026-04-02T03:13:32.937600Z",
      "apogee_km": 8069.688881752339,
      "perigee_km": 8062.082659361363,
      "latitude_deg": -0.0006174595245119613,
      "longitude_deg": 121.12534305239893,
      "height_km": 8060.610228410748,
      "semi_major_axis_km": 14444.02277055685,
      "eccentricity": 0.0002633,
      "inclination_deg": 0.0502,
      "raan_deg": 3.1354,
      "arg_perigee_deg": 6.1622,
      "mean_anomaly_deg": 350.7046,
      "mean_motion_rev_day": 5.00115731
    },
    {
      "epoch": "2026-04-07T17:33:08.246880Z",
      "apogee_km": 8069.705251613085,
      "perigee_km": 8062.0643640767385,
      "latitude_deg": -0.0004339607173787487,
      "longitude_deg": -99.28840649966988,
      "height_km": 8060.679964828802,
      "semi_major_axis_km": 14444.021807844912,
      "eccentricity": 0.0002645,
      "inclination_deg": 0.0504,
      "raan_deg": 3.4569,
      "arg_perigee_deg": 11.9343,
      "mean_anomaly_deg": 344.6161,
      "mean_motion_rev_day": 5.00115781
    },
    {
      "epoch": "2026-04-08T07:56:39.912864Z",
      "apogee_km": 8069.736392942353,
      "perigee_km": 8062.034262476324,
      "latitude_deg": -0.0006071598621488817,
      "longitude_deg": 44.238660789554956,
      "height_km": 8060.661794158476,
      "semi_major_axis_km": 14444.022327709337,
      "eccentricity": 0.00026662,
      "inclination_deg": 0.0505,
      "raan_deg": 3.4978,
      "arg_perigee_deg": 12.486,
      "mean_anomaly_deg": 344.024,
      "mean_motion_rev_day": 5.00115754
    },
    {
      "epoch": "2026-04-09T12:43:43.129056Z",
      "apogee_km": 8069.725126575203,
      "perigee_km": 8062.043795962099,
      "latitude_deg": -0.0009193115550915435,
      "longitude_deg": -28.70695082414731,
      "height_km": 8060.697087155779,
      "semi_major_axis_km": 14444.02146126865,
      "eccentricity": 0.0002659,
      "inclination_deg": 0.0505,
      "raan_deg": 3.5708,
      "arg_perigee_deg": 13.7699,
      "mean_anomaly_deg": 342.6678,
      "mean_motion_rev_day": 5.00115799
    },
    {
      "epoch": "2026-04-10T07:55:05.368800Z",
      "apogee_km": 8069.715709096546,
      "perigee_km": 8062.0545997458385,
      "latitude_deg": -0.0010811791012846801,
      "longitude_deg": 42.662260003827555,
      "height_km": 8060.742841507918,
      "semi_major_axis_km": 14444.02215442119,
      "eccentricity": 0.0002652,
      "inclination_deg": 0.0505,
      "raan_deg": 3.6216,
      "arg_perigee_deg": 15.4178,
      "mean_anomaly_deg": 340.97,
      "mean_motion_rev_day": 5.00115763
    },
    {
      "epoch": "2026-04-11T17:29:59.392032Z",
      "apogee_km": 8069.792435805329,
      "perigee_km": 8061.9811077495515,
      "latitude_deg": -0.0011838378844246974,
      "longitude_deg": -102.4420133612134,
      "height_km": 8060.782385787758,
      "semi_major_axis_km": 14444.02377177744,
      "eccentricity": 0.0002704,
      "inclination_deg": 0.0506,
      "raan_deg": 3.7012,
      "arg_perigee_deg": 19.7611,
      "mean_anomaly_deg": 336.5498,
      "mean_motion_rev_day": 5.00115679
    },
    {
      "epoch": "2026-04-13T03:04:53.180256Z",
      "apogee_km": 8069.803191773809,
      "perigee_km": 8061.9696201198285,
      "latitude_deg": -0.0009375469981666437,
      "longitude_deg": 112.45472121704701,
      "height_km": 8060.798216646386,
      "semi_major_axis_km": 14444.023405946818,
      "eccentricity": 0.00027117,
      "inclination_deg": 0.0506,
      "raan_deg": 3.7375,
      "arg_perigee_deg": 20.6885,
      "mean_anomaly_deg": 335.5871,
      "mean_motion_rev_day": 5.00115698
    }
  ]
}